IRIDIUM 39              
1 25042U 97069D   25359.85488226  .00000775  00000+0  19647-3 0  9999
2 25042  86.3927 129.0071 0018600  32.3005 327.9334 14.49523881476720
IRIDIUM 38              
1 25043U 97069E   25359.91775185  .00000497  00000+0  15703-3 0  9990
2 25043  86.3978 152.5666 0002627 139.0851 221.0544 14.38326173473518
IRIDIUM 42              
1 25077U 97077A   25359.88161128  .00000457  00000+0  14883-3 0  9992
2 25077  86.3983 158.9856 0001843 114.8366 245.3023 14.36543075468710
IRIDIUM 44              
1 25078U 97077B   25359.94345988  .00000443  00000+0  13333-3 0  9992
2 25078  86.3976 140.3836 0003852 104.4544 255.7083 14.40442681471307
IRIDIUM 45              
1 25104U 97082A   25359.87262088  .00036914  00000+0  10277-2 0  9994
2 25104  86.3553 314.2024 0094985 331.1760  28.4258 15.32138285481286
IRIDIUM 24              
1 25105U 97082B   25359.94495772  .00000467  00000+0  13524-3 0  9994
2 25105  86.3907 358.9479 0012152 154.2217 205.9591 14.42339519470852
IRIDIUM 51              
1 25262U 98018A   25359.89527811  .00106039  00000+0  10242-2 0  9997
2 25262  86.3735 319.4755 0046122 216.5613 143.2504 15.64728673476706
IRIDIUM 57              
1 25273U 98019B   25360.15054573  .00000350  00000+0  11375-3 0  9999
2 25273  86.3947  64.7648 0002235  97.6767 262.4683 14.36060911452336
